CCSDS_OMM_VERS = 2.0
CREATION_DATE  = 
ORIGINATOR     = 

OBJECT_NAME    = STARLINK-35664
OBJECT_ID      = 2025-244T
CENTER_NAME    = EARTH
REF_FRAME      = TEME
TIME_SYSTEM    = UTC
MEAN_ELEMENT_THEORY = SGP/SGP4

EPOCH          = 2025-11-17T20:00:04.000032
MEAN_MOTION    = 15.49236529
ECCENTRICITY   = .0001421
INCLINATION    = 53.1603
RA_OF_ASC_NODE = 33.5347
ARG_OF_PERICENTER = 45.5563
MEAN_ANOMALY   = 60.2922

EPHEMERIS_TYPE = 0
CLASSIFICATION_TYPE = U
NORAD_CAT_ID   = 66223
ELEMENT_SET_NO = 999
REV_AT_EPOCH   = 431
BSTAR          = .13043E-2
MEAN_MOTION_DOT = .72581E-3
MEAN_MOTION_DDOT = 0

CCSDS_OMM_VERS = 2.0
CREATION_DATE  = 
ORIGINATOR     = 

OBJECT_NAME    = STARLINK-35733
OBJECT_ID      = 2025-244U
CENTER_NAME    = EARTH
REF_FRAME      = TEME
TIME_SYSTEM    = UTC
MEAN_ELEMENT_THEORY = SGP/SGP4

EPOCH          = 2025-11-17T20:00:04.000032
MEAN_MOTION    = 15.49342642
ECCENTRICITY   = .0001326
INCLINATION    = 53.1605
RA_OF_ASC_NODE = 33.5225
ARG_OF_PERICENTER = 68.9643
MEAN_ANOMALY   = 42.5765

EPHEMERIS_TYPE = 0
CLASSIFICATION_TYPE = U
NORAD_CAT_ID   = 66224
ELEMENT_SET_NO = 999
REV_AT_EPOCH   = 420
BSTAR          = -.17394E-2
MEAN_MOTION_DOT = -.96124E-3
MEAN_MOTION_DDOT = 0

CCSDS_OMM_VERS = 2.0
CREATION_DATE  = 
ORIGINATOR     = 

OBJECT_NAME    = STARLINK-35734
OBJECT_ID      = 2025-244V
CENTER_NAME    = EARTH
REF_FRAME      = TEME
TIME_SYSTEM    = UTC
MEAN_ELEMENT_THEORY = SGP/SGP4

EPOCH          = 2025-11-17T20:00:04.000032
MEAN_MOTION    = 15.49336981
ECCENTRICITY   = .0001051
INCLINATION    = 53.1604
RA_OF_ASC_NODE = 33.5255
ARG_OF_PERICENTER = 60.9972
MEAN_ANOMALY   = 48.6251

EPHEMERIS_TYPE = 0
CLASSIFICATION_TYPE = U
NORAD_CAT_ID   = 66225
ELEMENT_SET_NO = 999
REV_AT_EPOCH   = 420
BSTAR          = -.15065E-2
MEAN_MOTION_DOT = -.83427E-3
MEAN_MOTION_DDOT = 0

CCSDS_OMM_VERS = 2.0
CREATION_DATE  = 
ORIGINATOR     = 

OBJECT_NAME    = STARLINK-34466
OBJECT_ID      = 2025-244W
CENTER_NAME    = EARTH
REF_FRAME      = TEME
TIME_SYSTEM    = UTC
MEAN_ELEMENT_THEORY = SGP/SGP4

EPOCH          = 2025-11-17T20:00:04.000032
MEAN_MOTION    = 15.49339446
ECCENTRICITY   = .0000916
INCLINATION    = 53.1605
RA_OF_ASC_NODE = 33.5175
ARG_OF_PERICENTER = 58.6767
MEAN_ANOMALY   = 54.7839

EPHEMERIS_TYPE = 0
CLASSIFICATION_TYPE = U
NORAD_CAT_ID   = 66226
ELEMENT_SET_NO = 999
REV_AT_EPOCH   = 452
BSTAR          = -.1663E-2
MEAN_MOTION_DOT = -.91953E-3
MEAN_MOTION_DDOT = 0

CCSDS_OMM_VERS = 2.0
CREATION_DATE  = 
ORIGINATOR     = 

OBJECT_NAME    = STARLINK-34882
OBJECT_ID      = 2025-244X
CENTER_NAME    = EARTH
REF_FRAME      = TEME
TIME_SYSTEM    = UTC
MEAN_ELEMENT_THEORY = SGP/SGP4

EPOCH          = 2025-11-17T20:00:04.000032
MEAN_MOTION    = 15.49338981
ECCENTRICITY   = .0001121
INCLINATION    = 53.1604
RA_OF_ASC_NODE = 33.5127
ARG_OF_PERICENTER = 58.6952
MEAN_ANOMALY   = 56.6779

EPHEMERIS_TYPE = 0
CLASSIFICATION_TYPE = U
NORAD_CAT_ID   = 66227
ELEMENT_SET_NO = 999
REV_AT_EPOCH   = 452
BSTAR          = -.1591E-2
MEAN_MOTION_DOT = -.88035E-3
MEAN_MOTION_DDOT = 0

CCSDS_OMM_VERS = 2.0
CREATION_DATE  = 
ORIGINATOR     = 

OBJECT_NAME    = STARLINK-35731
OBJECT_ID      = 2025-244Y
CENTER_NAME    = EARTH
REF_FRAME      = TEME
TIME_SYSTEM    = UTC
MEAN_ELEMENT_THEORY = SGP/SGP4

EPOCH          = 2025-11-17T20:00:04.000032
MEAN_MOTION    = 15.49338978
ECCENTRICITY   = .0001107
INCLINATION    = 53.1605
RA_OF_ASC_NODE = 33.5090
ARG_OF_PERICENTER = 53.7144
MEAN_ANOMALY   = 63.5719

EPHEMERIS_TYPE = 0
CLASSIFICATION_TYPE = U
NORAD_CAT_ID   = 66228
ELEMENT_SET_NO = 999
REV_AT_EPOCH   = 420
BSTAR          = -.15218E-2
MEAN_MOTION_DOT = -.84269E-3
MEAN_MOTION_DDOT = 0

CCSDS_OMM_VERS = 2.0
CREATION_DATE  = 
ORIGINATOR     = 

OBJECT_NAME    = STARLINK-35758
OBJECT_ID      = 2025-244Z
CENTER_NAME    = EARTH
REF_FRAME      = TEME
TIME_SYSTEM    = UTC
MEAN_ELEMENT_THEORY = SGP/SGP4

EPOCH          = 2025-11-17T20:00:04.000032
MEAN_MOTION    = 15.49339631
ECCENTRICITY   = .0001139
INCLINATION    = 53.1604
RA_OF_ASC_NODE = 33.5055
ARG_OF_PERICENTER = 56.4884
MEAN_ANOMALY   = 62.7153

EPHEMERIS_TYPE = 0
CLASSIFICATION_TYPE = U
NORAD_CAT_ID   = 66229
ELEMENT_SET_NO = 999
REV_AT_EPOCH   = 420
BSTAR          = -.15537E-2
MEAN_MOTION_DOT = -.86007E-3
MEAN_MOTION_DDOT = 0

CCSDS_OMM_VERS = 2.0
CREATION_DATE  = 
ORIGINATOR     = 

OBJECT_NAME    = STARLINK-35736
OBJECT_ID      = 2025-244AA
CENTER_NAME    = EARTH
REF_FRAME      = TEME
TIME_SYSTEM    = UTC
MEAN_ELEMENT_THEORY = SGP/SGP4

EPOCH          = 2025-11-17T20:00:04.000032
MEAN_MOTION    = 15.49332893
ECCENTRICITY   = .0000934
INCLINATION    = 53.1604
RA_OF_ASC_NODE = 33.5012
ARG_OF_PERICENTER = 60.2406
MEAN_ANOMALY   = 60.8850

EPHEMERIS_TYPE = 0
CLASSIFICATION_TYPE = U
NORAD_CAT_ID   = 66230
ELEMENT_SET_NO = 999
REV_AT_EPOCH   = 420
BSTAR          = -.13624E-2
MEAN_MOTION_DOT = -.75552E-3
MEAN_MOTION_DDOT = 0

CCSDS_OMM_VERS = 2.0
CREATION_DATE  = 
ORIGINATOR     = 

OBJECT_NAME    = STARLINK-35735
OBJECT_ID      = 2025-244AB
CENTER_NAME    = EARTH
REF_FRAME      = TEME
TIME_SYSTEM    = UTC
MEAN_ELEMENT_THEORY = SGP/SGP4

EPOCH          = 2025-11-17T20:00:04.000032
MEAN_MOTION    = 15.49337433
ECCENTRICITY   = .0001058
INCLINATION    = 53.1605
RA_OF_ASC_NODE = 33.4976
ARG_OF_PERICENTER = 58.6883
MEAN_ANOMALY   = 64.3535

EPHEMERIS_TYPE = 0
CLASSIFICATION_TYPE = U
NORAD_CAT_ID   = 66231
ELEMENT_SET_NO = 999
REV_AT_EPOCH   = 421
BSTAR          = -.15446E-2
MEAN_MOTION_DOT = -.85506E-3
MEAN_MOTION_DDOT = 0

CCSDS_OMM_VERS = 2.0
CREATION_DATE  = 
ORIGINATOR     = 

OBJECT_NAME    = STARLINK-35753
OBJECT_ID      = 2025-244AC
CENTER_NAME    = EARTH
REF_FRAME      = TEME
TIME_SYSTEM    = UTC
MEAN_ELEMENT_THEORY = SGP/SGP4

EPOCH          = 2025-11-17T20:00:04.000032
MEAN_MOTION    = 15.49347358
ECCENTRICITY   = .0001273
INCLINATION    = 53.1606
RA_OF_ASC_NODE = 33.4942
ARG_OF_PERICENTER = 74.0533
MEAN_ANOMALY   = 50.9033

EPHEMERIS_TYPE = 0
CLASSIFICATION_TYPE = U
NORAD_CAT_ID   = 66232
ELEMENT_SET_NO = 999
REV_AT_EPOCH   = 421
BSTAR          = -.1889E-2
MEAN_MOTION_DOT = -.10426E-2
MEAN_MOTION_DDOT = 0

CCSDS_OMM_VERS = 2.0
CREATION_DATE  = 
ORIGINATOR     = 

OBJECT_NAME    = STARLINK-35626
OBJECT_ID      = 2025-244AD
CENTER_NAME    = EARTH
REF_FRAME      = TEME
TIME_SYSTEM    = UTC
MEAN_ELEMENT_THEORY = SGP/SGP4

EPOCH          = 2025-11-17T20:00:04.000032
MEAN_MOTION    = 15.49477140
ECCENTRICITY   = .0001625
INCLINATION    = 53.1605
RA_OF_ASC_NODE = 33.4900
ARG_OF_PERICENTER = 67.1983
MEAN_ANOMALY   = 59.5524

EPHEMERIS_TYPE = 0
CLASSIFICATION_TYPE = U
NORAD_CAT_ID   = 66233
ELEMENT_SET_NO = 999
REV_AT_EPOCH   = 437
BSTAR          = -.43977E-2
MEAN_MOTION_DOT = -.239127E-2
MEAN_MOTION_DDOT = 0

CCSDS_OMM_VERS = 2.0
CREATION_DATE  = 
ORIGINATOR     = 

OBJECT_NAME    = STARLINK-35537
OBJECT_ID      = 2025-245A
CENTER_NAME    = EARTH
REF_FRAME      = TEME
TIME_SYSTEM    = UTC
MEAN_ELEMENT_THEORY = SGP/SGP4

EPOCH          = 2025-11-17T20:00:04.000032
MEAN_MOTION    = 15.62583264
ECCENTRICITY   = .0000879
INCLINATION    = 53.1597
RA_OF_ASC_NODE = 87.5169
ARG_OF_PERICENTER = 60.2747
MEAN_ANOMALY   = 303.0849

EPHEMERIS_TYPE = 0
CLASSIFICATION_TYPE = U
NORAD_CAT_ID   = 66234
ELEMENT_SET_NO = 999
REV_AT_EPOCH   = 410
BSTAR          = -.2469E-1
MEAN_MOTION_DOT = -.197689E-1
MEAN_MOTION_DDOT = 0

