STARLINK-35664          
1 66223U 25244T   25321.83337963  .00072581  00000+0  13043-2 0  9996
2 66223  53.1603  33.5347 0001421  45.5563  60.2922 15.49236529  4315
STARLINK-35733          
1 66224U 25244U   25321.83337963 -.00096124  00000+0 -17394-2 0  9991
2 66224  53.1605  33.5225 0001326  68.9643  42.5765 15.49342642  4205
STARLINK-35734          
1 66225U 25244V   25321.83337963 -.00083427  00000+0 -15065-2 0  9997
2 66225  53.1604  33.5255 0001051  60.9972  48.6251 15.49336981  4206
STARLINK-34466          
1 66226U 25244W   25321.83337963 -.00091953  00000+0 -16630-2 0  9990
2 66226  53.1605  33.5175 0000916  58.6767  54.7839 15.49339446  4528
STARLINK-34882          
1 66227U 25244X   25321.83337963 -.00088035  00000+0 -15910-2 0  9998
2 66227  53.1604  33.5127 0001121  58.6952  56.6779 15.49338981  4527
STARLINK-35731          
1 66228U 25244Y   25321.83337963 -.00084269  00000+0 -15218-2 0  9995
2 66228  53.1605  33.5090 0001107  53.7144  63.5719 15.49338978  4203
STARLINK-35758          
1 66229U 25244Z   25321.83337963 -.00086007  00000+0 -15537-2 0  9992
2 66229  53.1604  33.5055 0001139  56.4884  62.7153 15.49339631  4200
STARLINK-35736          
1 66230U 25244AA  25321.83337963 -.00075552  00000+0 -13624-2 0  9992
2 66230  53.1604  33.5012 0000934  60.2406  60.8850 15.49332893  4206
STARLINK-35735          
1 66231U 25244AB  25321.83337963 -.00085506  00000+0 -15446-2 0  9997
2 66231  53.1605  33.4976 0001058  58.6883  64.3535 15.49337433  4219
STARLINK-35753          
1 66232U 25244AC  25321.83337963 -.00104260  00000+0 -18890-2 0  9993
2 66232  53.1606  33.4942 0001273  74.0533  50.9033 15.49347358  4218
STARLINK-35626          
1 66233U 25244AD  25321.83337963 -.00239127  00000+0 -43977-2 0  9999
2 66233  53.1605  33.4900 0001625  67.1983  59.5524 15.49477140  4375
STARLINK-35537          
1 66234U 25245A   25321.83337963 -.01976890  00000+0 -24690-1 0  9997
2 66234  53.1597  87.5169 0000879  60.2747 303.0849 15.62583264  4103
